{"type": "FeatureCollection", "features": [ {"type": "Feature", "properties": {"norad_id": 66429, "name": "STARLINK-35533", "group": "last-30-days", "lat": -42.979389489454064, "lon": -4.1998451634570735, "alt_km": 433.66677929479374, "timestamp": "2025-12-06T05:40:08.010541+00:00", "meta": {"OBJECT_NAME": "STARLINK-35533", "OBJECT_ID": "2025-259H", "EPOCH": "2025-12-05T00:00:02.999808", "MEAN_MOTION": 15.50220836, "ECCENTRICITY": 0.00010953, "INCLINATION": 43.0005, "RA_OF_ASC_NODE": 92.5766, "ARG_OF_PERICENTER": 268.778, "MEAN_ANOMALY": 306.7772, "EPHEMERIS_TYPE": 0, "CLASSIFICATION_TYPE": "U", "NORAD_CAT_ID": 66429, "ELEMENT_SET_NO": 999, "REV_AT_EPOCH": 503, "BSTAR": -0.041142063, "MEAN_MOTION_DOT": -0.02113915, "MEAN_MOTION_DDOT": 0}, "tle": {"line1": "1 66429U 25259H   25339.00003472 -.02113915  00000+0 -41142-1 0  9994", "line2": "2 66429  43.0005  92.5766 0001095 268.7780 306.7772 15.50220836  5031"}}, "geometry": {"type": "Point", "coordinates": [-4.1998451634570735, -42.979389489454064]}}, {"type": "Feature", "properties": {"norad_id": 66430, "name": "STARLINK-35470", "group": "last-30-days", "lat": -42.154102785241186, "lon": 9.073500810931607, "alt_km": 425.9769217530411, "timestamp": "2025-12-06T05:40:08.010551+00:00", "meta": {"OBJECT_NAME": "STARLINK-35470", "OBJECT_ID": "2025-259J", "EPOCH": "2025-12-05T00:00:02.999808", "MEAN_MOTION": 15.5099305, "ECCENTRICITY": 0.00015225, "INCLINATION": 43.0005, "RA_OF_ASC_NODE": 92.5727, "ARG_OF_PERICENTER": 246.3698, "MEAN_ANOMALY": 331.1008, "EPHEMERIS_TYPE": 0, "CLASSIFICATION_TYPE": "U", "NORAD_CAT_ID": 66430, "ELEMENT_SET_NO": 999, "REV_AT_EPOCH": 503, "BSTAR": -0.024959323, "MEAN_MOTION_DOT": -0.01339214, "MEAN_MOTION_DDOT": 0}, "tle": {"line1": "1 66430U 25259J   25339.00003472 -.01339214  00000+0 -24959-1 0  9994", "line2": "2 66430  43.0005  92.5727 0001522 246.3698 331.1008 15.50993050  5034"}}, "geometry": {"type": "Point", "coordinates": [9.073500810931607, -42.154102785241186]}}, {"type": "Feature", "properties": {"norad_id": 66431, "name": "STARLINK-35439", "group": "last-30-days", "lat": -40.37818941313502, "lon": 19.47046902979957, "alt_km": 417.03153863808257, "timestamp": "2025-12-06T05:40:08.010562+00:00", "meta": {"OBJECT_NAME": "STARLINK-35439", "OBJECT_ID": "2025-259K", "EPOCH": "2025-12-05T00:00:02.999808", "MEAN_MOTION": 15.50553303, "ECCENTRICITY": 0.00017011, "INCLINATION": 43.0008, "RA_OF_ASC_NODE": 92.5673, "ARG_OF_PERICENTER": 272.0526, "MEAN_ANOMALY": 307.4125, "EPHEMERIS_TYPE": 0, "CLASSIFICATION_TYPE": "U", "NORAD_CAT_ID": 66431, "ELEMENT_SET_NO": 999, "REV_AT_EPOCH": 503, "BSTAR": 0.00047776409, "MEAN_MOTION_DOT": 0.0002776, "MEAN_MOTION_DDOT": 0}, "tle": {"line1": "1 66431U 25259K   25339.00003472  .00027760  00000+0  47776-3 0  9996", "line2": "2 66431  43.0008  92.5673 0001701 272.0526 307.4125 15.50553303  5032"}}, "geometry": {"type": "Point", "coordinates": [19.47046902979957, -40.37818941313502]}}, {"type": "Feature", "properties": {"norad_id": 66432, "name": "STARLINK-35446", "group": "last-30-days", "lat": -39.90468102451134, "lon": 21.510862591375773, "alt_km": 417.7103235816603, "timestamp": "2025-12-06T05:40:08.010572+00:00", "meta": {"OBJECT_NAME": "STARLINK-35446", "OBJECT_ID": "2025-259L", "EPOCH": "2025-12-05T00:00:02.999808", "MEAN_MOTION": 15.50614894, "ECCENTRICITY": 0.00013905, "INCLINATION": 43.0008, "RA_OF_ASC_NODE": 92.5616, "ARG_OF_PERICENTER": 276.0762, "MEAN_ANOMALY": 305.2902, "EPHEMERIS_TYPE": 0, "CLASSIFICATION_TYPE": "U", "NORAD_CAT_ID": 66432, "ELEMENT_SET_NO": 999, "REV_AT_EPOCH": 503, "BSTAR": -0.0011889521, "MEAN_MOTION_DOT": -0.00069563, "MEAN_MOTION_DDOT": 0}, "tle": {"line1": "1 66432U 25259L   25339.00003472 -.00069563  00000+0 -11890-2 0  9993", "line2": "2 66432  43.0008  92.5616 0001390 276.0762 305.2902 15.50614894  5032"}}, "geometry": {"type": "Point", "coordinates": [21.510862591375773, -39.90468102451134]}}, {"type": "Feature", "properties": {"norad_id": 66433, "name": "STARLINK-35457", "group": "last-30-days", "lat": -39.32786651153424, "lon": 23.780499113205607, "alt_km": 417.7787649209913, "timestamp": "2025-12-06T05:40:08.010582+00:00", "meta": {"OBJECT_NAME": "STARLINK-35457", "OBJECT_ID": "2025-259M", "EPOCH": "2025-12-05T00:00:02.999808", "MEAN_MOTION": 15.50624791, "ECCENTRICITY": 0.00015805, "INCLINATION": 43.0007, "RA_OF_ASC_NODE": 92.5583, "ARG_OF_PERICENTER": 258.1502, "MEAN_ANOMALY": 325.132, "EPHEMERIS_TYPE": 0, "CLASSIFICATION_TYPE": "U", "NORAD_CAT_ID": 66433, "ELEMENT_SET_NO": 999, "REV_AT_EPOCH": 503, "BSTAR": -0.0015620313, "MEAN_MOTION_DOT": -0.0009107, "MEAN_MOTION_DDOT": 0}, "tle": {"line1": "1 66433U 25259M   25339.00003472 -.00091070  00000+0 -15620-2 0  9997", "line2": "2 66433  43.0007  92.5583 0001580 258.1502 325.1320 15.50624791  5031"}}, "geometry": {"type": "Point", "coordinates": [23.780499113205607, -39.32786651153424]}}, {"type": "Feature", "properties": {"norad_id": 66434, "name": "STARLINK-35389", "group": "last-30-days", "lat": -38.68395823218077, "lon": 26.091496853319928, "alt_km": 417.826418985308, "timestamp": "2025-12-06T05:40:08.010592+00:00", "meta": {"OBJECT_NAME": "STARLINK-35389", "OBJECT_ID": "2025-259N", "EPOCH": "2025-12-05T00:00:02.999808", "MEAN_MOTION": 15.50622892, "ECCENTRICITY": 0.00014066, "INCLINATION": 43.0006, "RA_OF_ASC_NODE": 92.5536, "ARG_OF_PERICENTER": 264.1498, "MEAN_ANOMALY": 321.0512, "EPHEMERIS_TYPE": 0, "CLASSIFICATION_TYPE": "U", "NORAD_CAT_ID": 66434, "ELEMENT_SET_NO": 999, "REV_AT_EPOCH": 503, "BSTAR": -0.0015448605, "MEAN_MOTION_DOT": -0.00090076, "MEAN_MOTION_DDOT": 0}, "tle": {"line1": "1 66434U 25259N   25339.00003472 -.00090076  00000+0 -15449-2 0  9992", "line2": "2 66434  43.0006  92.5536 0001406 264.1498 321.0512 15.50622892  5035"}}, "geometry": {"type": "Point", "coordinates": [26.091496853319928, -38.68395823218077]}}, {"type": "Feature", "properties": {"norad_id": 66435, "name": "STARLINK-35502", "group": "last-30-days", "lat": -37.98169711906233, "lon": 28.40336188764349, "alt_km": 417.6412344489663, "timestamp": "2025-12-06T05:40:08.010606+00:00", "meta": {"OBJECT_NAME": "STARLINK-35502", "OBJECT_ID": "2025-259P", "EPOCH": "2025-12-05T00:00:02.999808", "MEAN_MOTION": 15.50618073, "ECCENTRICITY": 0.00015436, "INCLINATION": 43.0007, "RA_OF_ASC_NODE": 92.5491, "ARG_OF_PERICENTER": 267.9775, "MEAN_ANOMALY": 319.143, "EPHEMERIS_TYPE": 0, "CLASSIFICATION_TYPE": "U", "NORAD_CAT_ID": 66435, "ELEMENT_SET_NO": 999, "REV_AT_EPOCH": 503, "BSTAR": -0.0013812178, "MEAN_MOTION_DOT": -0.00080654, "MEAN_MOTION_DDOT": 0}, "tle": {"line1": "1 66435U 25259P   25339.00003472 -.00080654  00000+0 -13812-2 0  9996", "line2": "2 66435  43.0007  92.5491 0001543 267.9775 319.1430 15.50618073  5031"}}, "geometry": {"type": "Point", "coordinates": [28.40336188764349, -37.98169711906233]}}, {"type": "Feature", "properties": {"norad_id": 66436, "name": "STARLINK-35501", "group": "last-30-days", "lat": -36.46680770710143, "lon": 32.831411751692684, "alt_km": 417.3602212784208, "timestamp": "2025-12-06T05:40:08.010616+00:00", "meta": {"OBJECT_NAME": "STARLINK-35501", "OBJECT_ID": "2025-259Q", "EPOCH": "2025-12-05T00:00:02.999808", "MEAN_MOTION": 15.50586469, "ECCENTRICITY": 0.0001752, "INCLINATION": 43.0007, "RA_OF_ASC_NODE": 92.539, "ARG_OF_PERICENTER": 269.0372, "MEAN_ANOMALY": 321.9252, "EPHEMERIS_TYPE": 0, "CLASSIFICATION_TYPE": "U", "NORAD_CAT_ID": 66436, "ELEMENT_SET_NO": 999, "REV_AT_EPOCH": 503, "BSTAR": -0.00092574678, "MEAN_MOTION_DOT": -0.00054291, "MEAN_MOTION_DDOT": 0}, "tle": {"line1": "1 66436U 25259Q   25339.00003472 -.00054291  00000+0 -92575-3 0  9999", "line2": "2 66436  43.0007  92.5390 0001752 269.0372 321.9252 15.50586469  5034"}}, "geometry": {"type": "Point", "coordinates": [32.831411751692684, -36.46680770710143]}}, {"type": "Feature", "properties": {"norad_id": 66437, "name": "STARLINK-35474", "group": "last-30-days", "lat": -35.66381255120094, "lon": 34.941407193610786, "alt_km": 417.54082943702724, "timestamp": "2025-12-06T05:40:08.010628+00:00", "meta": {"OBJECT_NAME": "STARLINK-35474", "OBJECT_ID": "2025-259R", "EPOCH": "2025-12-05T00:00:02.999808", "MEAN_MOTION": 15.50616065, "ECCENTRICITY": 0.00015318, "INCLINATION": 43.0007, "RA_OF_ASC_NODE": 92.5341, "ARG_OF_PERICENTER": 273.3566, "MEAN_ANOMALY": 319.5146, "EPHEMERIS_TYPE": 0, "CLASSIFICATION_TYPE": "U", "NORAD_CAT_ID": 66437, "ELEMENT_SET_NO": 999, "REV_AT_EPOCH": 503, "BSTAR": -0.0013836442, "MEAN_MOTION_DOT": -0.00080788, "MEAN_MOTION_DDOT": 0}, "tle": {"line1": "1 66437U 25259R   25339.00003472 -.00080788  00000+0 -13836-2 0  9992", "line2": "2 66437  43.0007  92.5341 0001531 273.3566 319.5146 15.50616065  5030"}}, "geometry": {"type": "Point", "coordinates": [34.941407193610786, -35.66381255120094]}}, {"type": "Feature", "properties": {"norad_id": 66438, "name": "STARLINK-34681", "group": "last-30-days", "lat": -34.78095089118744, "lon": 37.11252025781214, "alt_km": 417.43939068909094, "timestamp": "2025-12-06T05:40:08.010639+00:00", "meta": {"OBJECT_NAME": "STARLINK-34681", "OBJECT_ID": "2025-259S", "EPOCH": "2025-12-05T00:00:02.999808", "MEAN_MOTION": 15.50607171, "ECCENTRICITY": 0.00015784, "INCLINATION": 43.0007, "RA_OF_ASC_NODE": 92.5293, "ARG_OF_PERICENTER": 264.8555, "MEAN_ANOMALY": 329.932, "EPHEMERIS_TYPE": 0, "CLASSIFICATION_TYPE": "U", "NORAD_CAT_ID": 66438, "ELEMENT_SET_NO": 999, "REV_AT_EPOCH": 492, "BSTAR": -0.0010505396, "MEAN_MOTION_DOT": -0.00061551, "MEAN_MOTION_DDOT": 0}, "tle": {"line1": "1 66438U 25259S   25339.00003472 -.00061551  00000+0 -10505-2 0  9990", "line2": "2 66438  43.0007  92.5293 0001578 264.8555 329.9320 15.50607171  4925"}}, "geometry": {"type": "Point", "coordinates": [37.11252025781214, -34.78095089118744]}}]}